{
    "links": {
        "self": "http://www.neowsapp.com/rest/v1/neo/3348448?api_key=iIulBulltgU6a56xZRHN4H3l9WmuAYTsLGpBGhQ2"
    },
    "id": "3348448",
    "neo_reference_id": "3348448",
    "name": "(2006 TB7)",
    "designation": "2006 TB7",
    "nasa_jpl_url": "http://ssd.jpl.nasa.gov/sbdb.cgi?sstr=3348448",
    "absolute_magnitude_h": 23.7,
    "estimated_diameter": {
        "kilometers": {
            "estimated_diameter_min": 0.0483676488,
            "estimated_diameter_max": 0.1081533507
        },
        "meters": {
            "estimated_diameter_min": 48.3676488219,
            "estimated_diameter_max": 108.1533506775
        },
        "miles": {
            "estimated_diameter_min": 0.0300542543,
            "estimated_diameter_max": 0.0672033557
        },
        "feet": {
            "estimated_diameter_min": 158.6865169607,
            "estimated_diameter_max": 354.8338390368
        }
    },
    "is_potentially_hazardous_asteroid": false,
    "close_approach_data": [
        {
            "close_approach_date": "1925-05-14",
            "close_approach_date_full": "1925-May-14 15:05",
            "epoch_date_close_approach": -1408524900000,
            "relative_velocity": {
                "kilometers_per_second": "9.7905997271",
                "kilometers_per_hour": "35246.159017656",
                "miles_per_hour": "21900.5925296097"
            },
            "miss_distance": {
                "astronomical": "0.4027328479",
                "lunar": "156.6630778331",
                "kilometers": "60247976.224873973",
                "miles": "37436356.4792199074"
            },
            "orbiting_body": "Earth"
        },
        {
            "close_approach_date": "1925-09-27",
            "close_approach_date_full": "1925-Sep-27 08:28",
            "epoch_date_close_approach": -1396798320000,
            "relative_velocity": {
                "kilometers_per_second": "11.9589095984",
                "kilometers_per_hour": "43052.074554353",
                "miles_per_hour": "26750.8848807312"
            },
            "miss_distance": {
                "astronomical": "0.0173901599",
                "lunar": "6.7647722011",
                "kilometers": "2601530.879999413",
                "miles": "1616516.3299733794"
            },
            "orbiting_body": "Earth"
        },
        {
            "close_approach_date": "2006-05-13",
            "close_approach_date_full": "2006-May-13 15:53",
            "epoch_date_close_approach": 1147535580000,
            "relative_velocity": {
                "kilometers_per_second": "9.8745927689",
                "kilometers_per_hour": "35548.5339679383",
                "miles_per_hour": "22088.4765646892"
            },
            "miss_distance": {
                "astronomical": "0.4039127204",
                "lunar": "157.1220482356",
                "kilometers": "60424482.637745548",
                "miles": "37546032.4784346424"
            },
            "orbiting_body": "Earth"
        },
        {
            "close_approach_date": "2006-09-28",
            "close_approach_date_full": "2006-Sep-28 20:36",
            "epoch_date_close_approach": 1159475760000,
            "relative_velocity": {
                "kilometers_per_second": "12.1015689437",
                "kilometers_per_hour": "43565.6481974514",
                "miles_per_hour": "27069.9995702442"
            },
            "miss_distance": {
                "astronomical": "0.0239956359",
                "lunar": "9.3343023651",
                "kilometers": "3589696.019935533",
                "miles": "2230533.6755670354"
            },
            "orbiting_body": "Earth"
        }
    ],
    "orbital_data": {
        "orbit_id": "10",
        "orbit_determination_date": "2017-04-06 09:07:56",
        "first_observation_date": "2006-10-04",
        "last_observation_date": "2006-10-11",
        "data_arc_in_days": 7,
        "observations_used": 10,
        "orbit_uncertainty": "8",
        "minimum_orbit_intersection": ".0167217",
        "jupiter_tisserand_invariant": "5.054",
        "epoch_osculation": "2454015.5",
        "eccentricity": ".1992840251738877",
        "semi_major_axis": "1.251453207074395",
        "inclination": "21.26119945017871",
        "ascending_node_longitude": "185.1810981193548",
        "orbital_period": "511.3524608087449",
        "perihelion_distance": "1.002058574651839",
        "perihelion_argument": "154.0143341739883",
        "aphelion_distance": "1.500847839496951",
        "perihelion_time": "2453983.609010862212",
        "mean_anomaly": "22.45174702287722",
        "mean_motion": ".7040153858468406",
        "equinox": "J2000",
        "orbit_class": {
            "orbit_class_type": "APO",
            "orbit_class_description": "Near-Earth asteroid orbits which cross the Earth’s orbit similar to that of 1862 Apollo",
            "orbit_class_range": "a (semi-major axis) > 1.0 AU; q (perihelion) < 1.017 AU"
        }
    },
    "is_sentry_object": false
}